NORAD_CAT_ID,OBJECT_NAME,OBJECT_TYPE,EPOCH,MEAN_MOTION,ECCENTRICITY,INCLINATION,RA_OF_ASC_NODE,ARG_OF_PERICENTER,MEAN_ANOMALY,BSTAR,MEAN_MOTION_DOT,MEAN_MOTION_DDOT,TLE_LINE0,TLE_LINE1,TLE_LINE2,SEMIMAJOR_AXIS,PERIOD,APOGEE,PERIGEE,DECAYED
54070.0,STARLINK-5181,PAYLOAD,2022-11-15 22:00:00,15.49886023,0.000168,53.2176,18.5205,38.2815,161.7394,-1.4983e-05,-1.302e-05,0.0,0 STARLINK-5181,1 54070U 22136V   22319.91667824 -.00001302  00000-0 -14983-4 0  9997,2 54070  53.2176  18.5205 0001680  38.2815 161.7394 15.49886023  1306,6795.196,92.91,418.203,415.92,0.0
54070.0,STARLINK-5181,PAYLOAD,2022-11-16 14:00:01,15.49884287,0.0001817,53.2174,15.3362,36.169,285.7449,4.303600000000001e-05,1.991e-05,0.0,0 STARLINK-5181,1 54070U 22136V   22320.58335648  .00001991  00000-0  43036-4 0  9991,2 54070  53.2174  15.3362 0001817  36.1690 285.7449 15.49884287  1301,6795.201,92.91,418.301,415.832,0.0
54070.0,STARLINK-5181,PAYLOAD,2022-11-16 20:00:01,15.49887419,0.0001729,53.2173,14.14,36.9513,240.5837,-7.6166e-05,-4.772e-05,0.0,0 STARLINK-5181,1 54070U 22136V   22320.83334491 -.00004772  00000-0 -76166-4 0  9996,2 54070  53.2173  14.1400 0001729  36.9513 240.5837 15.49887419  4789,6795.191999999999,92.91,418.232,415.882,0.0
54070.0,STARLINK-5181,PAYLOAD,2022-11-16 22:00:08,15.49885149,0.0001710999999999,53.2174,13.7409,38.2069,345.0101,4.8919e-06,-1.74e-06,0.0,0 STARLINK-5181,1 54070U 22136V   22320.91675926 -.00000174  00000-0  48919-5 0  9993,2 54070  53.2174  13.7409 0001711  38.2069 345.0101 15.49885149  1304,6795.199000000001,92.91,418.226,415.901,0.0
54070.0,STARLINK-5181,PAYLOAD,2022-11-17 06:00:00,15.4990262,0.0001898,53.2161,12.155,43.0634,40.7106,-0.00019405,-0.00011457,0.0,0 STARLINK-5181,1 54070U 22136V   22321.25001157 -.00011457  00000-0 -19405-3 0  9993,2 54070  53.2161  12.1550 0001898  43.0634  40.7106 15.49902620  4848,6795.148,92.909,418.302,415.723,0.0
54070.0,STARLINK-5181,PAYLOAD,2022-11-17 14:00:01,15.49870003,0.0002074,53.2162,10.5635,37.3977,107.309,0.0011175999999999,0.00063462,0.0,0 STARLINK-5181,1 54070U 22136V   22321.58334491  .00063462  00000-0  11176-2 0  9996,2 54070  53.2162  10.5635 0002074  37.3977 107.3090 15.49870003  1307,6795.243,92.911,418.517,415.699,0.0
54070.0,STARLINK-5181,PAYLOAD,2022-11-17 22:00:00,15.49931861,0.0001817,53.2169,8.9664,37.3332,168.303,-0.00158,-0.00089262,0.0,0 STARLINK-5181,1 54070U 22136V   22321.91667824 -.00089262  00000-0 -15800-2 0  9998,2 54070  53.2169   8.9664 0001817  37.3332 168.3030 15.49931861  1307,6795.062,92.907,418.162,415.693,0.0
54070.0,STARLINK-5181,PAYLOAD,2022-11-18 06:00:00,15.49728711,0.0002006,53.2172,7.3707,37.0755,229.5296,0.0014009,0.00079429,0.0,0 STARLINK-5181,1 54070U 22136V   22322.25001157  .00079429  00000-0  14009-2 0  9999,2 54070  53.2172   7.3707 0002006  37.0755 229.5296 15.49728711  5002,6795.656,92.919,418.884,416.158,0.0
54070.0,STARLINK-5181,PAYLOAD,2022-11-18 14:00:01,15.49610991,0.0001864,53.217,5.7794,34.4725,293.0497,0.0061735,0.00363159,0.0,0 STARLINK-5181,1 54070U 22136V   22322.58334491  .00363159  00000-0  61735-2 0  9999,2 54070  53.2170   5.7794 0001864  34.4725 293.0497 15.49610991  5051,6796.0,92.927,419.132,416.598,0.0
54070.0,STARLINK-5181,PAYLOAD,2022-11-18 22:00:00,15.49882687,0.0001876,53.2166,4.1893,35.9,352.4981,0.00062759,0.00035326,0.0,0 STARLINK-5181,1 54070U 22136V   22322.91667824  .00035326  00000-0  62759-3 0  9995,2 54070  53.2166   4.1893 0001876  35.9000 352.4981 15.49882687  5101,6795.206,92.91,418.346,415.796,0.0
54070.0,STARLINK-5181,PAYLOAD,2022-11-19 14:00:01,15.49837892,0.0002063,53.2159,1.0052,29.0976,121.1565,0.0009974,0.00056473,0.0,0 STARLINK-5181,1 54070U 22136V   22323.58334491  .00056473  00000-0  99740-3 0  9996,2 54070  53.2159   1.0052 0002063  29.0976 121.1565 15.49837892  1306,6795.337,92.913,418.604,415.8,0.0
54070.0,STARLINK-5181,PAYLOAD,2022-11-19 22:00:00,15.49851819,0.0001843,53.2159,359.4103,32.2056,178.9359,0.00076947,0.00043412,0.0,0 STARLINK-5181,1 54070U 22136V   22323.91667824  .00043412  00000-0  76947-3 0  9995,2 54070  53.2159 359.4103 0001843  32.2056 178.9359 15.49851819  5268,6795.295999999999,92.912,418.414,415.909,0.0
54070.0,STARLINK-5181,PAYLOAD,2022-11-20 14:00:01,15.50055389,0.0001969,53.2164,356.224,22.8441,310.0691,-0.0083487,-0.00450784,0.0,0 STARLINK-5181,1 54070U 22136V   22324.58334491 -.00450784  00000-0 -83487-2 0  9992,2 54070  53.2164 356.2240 0001969  22.8441 310.0691 15.50055389  5362,6794.701,92.9,417.904,415.228,0.0
54070.0,STARLINK-5181,PAYLOAD,2022-11-20 22:00:00,15.49691223,0.0001922,53.2172,354.6256,25.4971,8.3758,-0.011211,-0.00587205,0.0,0 STARLINK-5181,1 54070U 22136V   22324.91667824 -.00587205  00000-0 -11211-1 0  9992,2 54070  53.2172 354.6256 0001922  25.4971   8.3758 15.49691223  1308,6795.766,92.922,418.937,416.324,0.0
54070.0,STARLINK-5181,PAYLOAD,2022-11-21 08:00:01,15.49063373,0.0003411,53.2172,352.6346,281.8069,277.5359,-0.023281,-0.01172856,0.0,0 STARLINK-5181,1 54070U 22136V   22325.33334491 -.01172856  00000-0 -23281-1 0  9993,2 54070  53.2172 352.6346 0003411 281.8069 277.5359 15.49063373  5486,6797.602,92.959,421.785,417.148,0.0
54070.0,STARLINK-5181,PAYLOAD,2022-11-21 14:00:01,15.48396919,0.0001938,53.2168,351.444,32.7054,121.3116,-0.023204,-0.0114389,0.0,0 STARLINK-5181,1 54070U 22136V   22325.58334491 -.01143890  00000-0 -23204-1 0  9991,2 54070  53.2168 351.4440 0001938  32.7054 121.3116 15.48396919  1300,6799.552,92.999,422.735,420.099,0.0
54070.0,STARLINK-5181,PAYLOAD,2022-11-21 22:00:00,15.47591006,0.0004053999999999,53.2173,349.8534,277.6745,294.9684,-0.025464,-0.01214273,0.0,0 STARLINK-5181,1 54070U 22136V   22325.91667824 -.01214273  00000-0 -25464-1 0  9991,2 54070  53.2173 349.8534 0004054 277.6745 294.9684 15.47591006  5573,6801.913000000001,93.048,426.535,421.02,0.0
54070.0,STARLINK-5181,PAYLOAD,2022-11-22 14:00:01,15.45883706,0.0001629999999999,53.2169,346.6842,35.5276,291.3827,-0.027305,-0.01224889,0.0,0 STARLINK-5181,1 54070U 22136V   22326.58335648 -.01224889  00000-0 -27305-1 0  9991,2 54070  53.2169 346.6842 0001630  35.5276 291.3827 15.45883706  5672,6806.92,93.151,429.894,427.675,0.0
54070.0,STARLINK-5181,PAYLOAD,2022-11-22 22:00:00,15.45005871,0.0001599,53.2173,345.099,33.3639,349.0527,-0.027453,-0.01197431,0.0,0 STARLINK-5181,1 54070U 22136V   22326.91667824 -.01197431  00000-0 -27453-1 0  9998,2 54070  53.2173 345.0990 0001599  33.3639 349.0527 15.45005871  1300,6809.498000000001,93.204,432.452,430.274,0.0
54070.0,STARLINK-5181,PAYLOAD,2022-11-23 14:00:01,15.43310783,0.0001805,53.2167,341.9427,38.6296,91.8024,-0.029725,-0.01221233,0.0,0 STARLINK-5181,1 54070U 22136V   22327.58334491 -.01221233  00000-0 -29725-1 0  9995,2 54070  53.2167 341.9427 0001805  38.6296  91.8024 15.43310783  1303,6814.483,93.306,437.578,435.11800000000005,0.0
54070.0,STARLINK-5181,PAYLOAD,2022-11-23 16:00:00,15.43083505,0.0001641,53.2169,341.5474,44.6943,188.9597,-0.029547,-0.01206022,0.0,0 STARLINK-5181,1 54070U 22136V   22327.66667824 -.01206022  00000-0 -29547-1 0  9994,2 54070  53.2169 341.5474 0001641  44.6943 188.9597 15.43083505  5842,6815.151999999999,93.32,438.136,435.899,0.0
54070.0,STARLINK-5181,PAYLOAD,2022-11-23 22:00:00,15.42446357,0.0001712,53.2171,340.3648,41.816,141.0899,-0.030375,-0.01212717,0.0,0 STARLINK-5181,1 54070U 22136V   22327.91667824 -.01212717  00000-0 -30375-1 0  9991,2 54070  53.2171 340.3648 0001712  41.8160 141.0899 15.42446357  1303,6817.029,93.358,440.061,437.727,0.0
54070.0,STARLINK-5181,PAYLOAD,2022-11-24 14:00:01,15.40751316,0.0001513,53.2165,337.2198,41.868,242.8749,-0.032914,-0.01238648,0.0,0 STARLINK-5181,1 54070U 22136V   22328.58334491 -.01238648  00000-0 -32914-1 0  9998,2 54070  53.2165 337.2198 0001513  41.8680 242.8749 15.40751316  5981,6822.028,93.461,444.925,442.86,0.0
54070.0,STARLINK-5181,PAYLOAD,2022-11-24 22:00:00,15.39867144,0.0001546,53.217,335.648,34.2154,299.9201,-0.032783,-0.01201581,0.0,0 STARLINK-5181,1 54070U 22136V   22328.91667824 -.01201581  00000-0 -32783-1 0  9994,2 54070  53.2170 335.6480 0001546  34.2154 299.9201 15.39867144  1304,6824.639,93.515,447.559,445.449,0.0
54070.0,STARLINK-5181,PAYLOAD,2022-11-25 14:00:01,15.38171382,0.0001718,53.2164,332.5154,37.1399,32.6518,-0.035407,-0.01224812,0.0,0 STARLINK-5181,1 54070U 22136V   22329.58334491 -.01224812  00000-0 -35407-1 0  9997,2 54070  53.2164 332.5154 0001718  37.1399  32.6518 15.38171382  1309,6829.654,93.618,452.692,450.345,0.0
54070.0,STARLINK-5181,PAYLOAD,2022-11-25 22:00:00,15.37300211,0.00017,53.2169,330.9499,40.9404,75.1482,-0.035862,-0.01207403,0.0,0 STARLINK-5181,1 54070U 22136V   22329.91667824 -.01207403  00000-0 -35862-1 0  9995,2 54070  53.2169 330.9499 0001700  40.9404  75.1482 15.37300211  6185,6832.234,93.671,455.26,452.937,0.0
54070.0,STARLINK-5181,PAYLOAD,2022-11-26 14:00:01,15.35594661,0.0001746,53.2166,327.8291,44.1923,161.3785,-0.038285,-0.01218463,0.0,0 STARLINK-5181,1 54070U 22136V   22330.58334491 -.01218463  00000-0 -38285-1 0  9991,2 54070  53.2166 327.8291 0001746  44.1923 161.3785 15.35594661  1304,6837.292,93.775,460.351,457.963,0.0
54070.0,STARLINK-5181,PAYLOAD,2022-11-26 22:00:00,15.34739359,0.0001689,53.2169,326.2696,41.8169,206.9518,-0.03942,-0.0122031,0.0,0 STARLINK-5181,1 54070U 22136V   22330.91667824 -.01220310  00000-0 -39420-1 0  9993,2 54070  53.2169 326.2696 0001689  41.8169 206.9518 15.34739359  6344,6839.831999999999,93.827,462.852,460.542,0.0
54070.0,STARLINK-5181,PAYLOAD,2022-11-27 14:00:01,15.33020557,0.0001573,53.2168,323.161,42.1406,289.9375,-0.041451,-0.01215158,0.0,0 STARLINK-5181,1 54070U 22136V   22331.58334491 -.01215158  00000-0 -41451-1 0  9999,2 54070  53.2168 323.1610 0001573  42.1406 289.9375 15.33020557  1300,6844.943,93.932,467.885,465.732,0.0
